#dP2024  8  3 12  0  0.00000000      96 __u+U IGS20 EXT  IAC
## 2325 561600.00000000   900.00000000 60525 0.5000000000000
+   53   G02G03G04G05G06G07G08G09G10G11G12G13G14G15G16G17G18
+        G19G20G21G22G23G24G25G26G27G28G29G30G31G32R01R02R03
+        R04R05R07R08R09R11R12R14R15R16R17R18R19R20R21R22R24
+        R25R26  0  0  0  0  0  0  0  0  0  0  0  0  0  0  0
+          0  0  0  0  0  0  0  0  0  0  0  0  0  0  0  0  0
++         9  7 10  8  8  7  8  8  9  9  9  7  8 10  8  8  9
++         8  9  9  8  9  7  8  8  8 10  8  7  9  9  7  9  7
++         7  8  8  8  7  8  7  7  8  9  8  7 11  9  8  7  9
++         7  9  0  0  0  0  0  0  0  0  0  0  0  0  0  0  0
++         0  0  0  0  0  0  0  0  0  0  0  0  0  0  0  0  0
%c M  cc GPS ccc cccc cccc cccc cccc ccccc ccccc ccccc ccccc
%c cc cc ccc ccc cccc cccc cccc cccc ccccc ccccc ccccc ccccc
%f  0.0000000  0.000000000  0.00000000000  0.000000000000000
%f  0.0000000  0.000000000  0.00000000000  0.000000000000000
%i    0    0    0    0      0      0      0      0         0
%i    0    0    0    0      0      0      0      0         0
/* IAC                                ULTRA-RAPID PREDICTION
/* S/V CLOCKS ARE ALIGNED TO GNSS TIME                      
/* G:C1WC2W R:C1PC2P E:C1XC5X C:C2IC6I J:C1CC2S             
/* PCV:IGS20_2317 OL/AL:FES2004  NONE     YN ORB:CoN CLK:CoN
*  2024 08 04  1 30  0.00000000
PG02 -20086.328703 -13677.940042 -10609.990279   -386.019567
PG03 -12370.693502 -18415.860146  14525.217527    485.922546
PG04 -13791.705664  -8084.672262  21248.195140    417.176051
PG05   5282.852039  25986.527236   -232.451756   -182.012237
PG06 -15041.647764   8256.494136  20366.696504    120.752032
PG07 -25441.634469  -5711.338961  -5670.826034    -57.620799
PG08  -3877.683358 -16115.854511 -20776.358229    301.748555
PG09 -21021.835237   3027.801157  15893.897808    299.823491
PG10  11182.383307 -13532.145171 -19614.631278    -83.953374
PG11   -323.923141  15965.407546  21261.081422   -716.040734
PG12  10135.985604  21212.910700  12122.815466   -527.590306
PG13  -6209.594884  18186.811652 -18446.871831    668.691020
PG14 -13791.794344   9464.598908 -20542.212026    464.283059
PG15   6170.533828  15906.836189 -20831.686785    188.591713
PG16    368.585175 -26130.734429   2764.841165   -218.287961
PG17 -22672.171144  13686.069435  -2567.520328    663.145391
PG18  25138.256015   5141.224491  -7262.673299   -643.055391
PG19 -19466.368752  16824.176300   5473.646011    519.731250
PG20    243.537516  24426.282139  10673.471265    372.052925
PG21 -16044.365621 -15447.977938 -14793.023280    104.992416
PG22 -10408.599705  17972.119939 -16306.438050    -47.309994
PG23  14964.584251    159.366177 -21930.404640    289.215938
PG24  18033.466866  15193.777854 -13047.475665   -485.402402
PG25  15276.251998  10931.997492  18540.263683    499.061899
PG26   6549.733375 -20720.102240  14863.596144    107.458487
PG27   7377.042615 -20077.187823 -15759.441021    -32.476030
PG28  17027.752838  -7836.348314  18808.100798   -358.489236
PG29  19439.472240   1742.709697  18024.804776   -586.050749
PG30 -21673.632177   3336.700821 -15014.769795   -346.241688
PG31   5975.089605 -14034.257022  21521.953785   -226.202482
PG32  21188.528184 -15732.003406  -1576.283992   -608.236912
PR01 -15429.519835  16665.027771  11597.123327     93.413795
PR02 -10763.030100  22565.585903  -5193.838795    -23.970252
PR03    876.525430  16466.242120 -19441.541751    104.986534
PR04  11372.653829   1474.188486 -22758.011553    248.273936
PR05  16047.452333 -14159.160264 -13855.017646    135.535504
PR07  -1426.250377 -15916.656625  19900.865724     88.065689
PR08 -11647.899005  -1172.031785  22722.814302     -6.263359
PR09  -1328.779395 -18680.530531  17386.635786    201.408797
PR11 -15955.506227 -14969.280251 -13117.329163     16.049519
PR12 -10671.717549   3485.014972 -22873.093798     43.219261
PR14  11930.706975  22425.218908  -2175.943275     26.760126
PR15  15923.193180  13676.362316  14512.249449     77.203046
PR16  10635.066675  -3291.256954  22964.094411     27.950647
PR17  11522.559110   9609.163471  20649.787843    110.439611
PR18  23631.205012   4437.173534   8472.295130    155.280086
PR19  24638.909177  -1496.950608  -6460.943704   -286.291042
PR20   9249.178764  -9245.623177 -21888.133532   -117.128892
PR21 -10833.747624  -9735.370196 -20932.550812   -123.057286
PR22 -24024.881077  -4617.206923  -7206.795269     76.408834
PR24  -8256.909969  10216.536632  21874.450659    -66.387357
PR25 -11395.548600 -10262.660646 -20371.269492    -99.346289
PR26 -10903.008079  -2569.945464  22931.743493      7.790688
*  2024 08 04  1 45  0.00000000
PG02 -18678.042800 -13501.328064 -13001.276282   -386.012800
PG03 -12497.968400 -19964.783393  12223.200520    485.936510
PG04 -11888.007088  -9631.915262  21735.912173    417.182829
PG05   5023.611091  25883.976346   2645.950455   -182.013341
PG06 -17105.466568   7403.515071  19026.578589    120.730598
PG07 -25869.465401  -6131.178510  -2918.732523    -57.614831
PG08  -2091.929065 -17586.675758 -19773.285947    301.762190
PG09 -19685.446572   1618.231404  17694.166034    299.837308
PG10  11688.397055 -11230.294646 -20756.945219    -83.962906
PG11  -2606.436439  15066.750863  21748.948780   -716.046139
PG12  10056.078462  22512.111735   9655.681144   -527.592987
PG13  -7959.391893  19120.555723 -16708.369059    668.693031
PG14 -14243.279184   7100.097234 -21195.806726    464.290953
PG15   4621.910494  17528.658187 -19869.668505    188.595615
PG16    703.615697 -25637.748318   5593.125179   -218.278569
PG17 -22405.835252  13208.875628  -5380.585382    663.137473
PG18  25696.223128   5558.884792  -4497.086966   -643.058492
PG19 -20018.610460  16879.048242   2630.639438    519.735968
PG20   -430.774605  23242.906780  13045.851710    372.052557
PG21 -14234.859508 -15113.347888 -16711.128426    104.990392
PG22 -10739.656567  15965.908572 -18018.404974    -47.313845
PG23  15449.657327   2591.851082 -21455.225762    289.223821
PG24  16487.492947  15026.306381 -15148.707952   -485.403348
PG25  15533.923159  13009.199236  16969.334036    499.062140
PG26   7273.195637 -18993.365986  16732.959401    107.451855
PG27   8762.023775 -21000.031240 -13630.219112    -32.476607
PG28  18947.201860  -7068.371584  17209.883368   -358.502959
PG29  17765.176339   3094.933336  19495.676154   -586.048779
PG30 -23117.261400   2570.638762 -12908.250314   -346.235663
PG31   8309.146530 -13136.425956  21349.724532   -226.202148
PG32  21082.598253 -15291.039183  -4420.634573   -608.234663
PR01 -14598.280710  15296.729461  14254.515606     93.414833
PR02 -10829.678999  23043.152515  -2013.892626    -23.970454
PR03   -130.558674  18523.549189 -17523.984245    104.987182
PR04   9972.394792   3944.014305 -23118.637767    248.275357
PR05  15015.766798 -12600.370750 -16301.533316    135.535925
PR07   -386.653722 -18012.556223  18070.158850     88.066383
PR08 -10278.899434  -3631.944803  23117.999265     -6.263465
PR09   -137.204879 -16768.053868  19278.525631    201.410696
PR11 -16832.812274 -16130.934273 -10358.517863     16.048387
PR12 -12163.540685   1117.595136 -22360.805976     43.219653
PR14  11776.638378  21971.692237  -5330.768462     26.760216
PR15  16867.092179  15003.170066  11893.267975     77.202634
PR16  12139.320903   -932.572372  22425.272046     27.950880
PR17   8895.309173   9583.237923  21917.752590    110.442542
PR18  22402.820407   4262.046108  11401.144925    155.281764
PR19  25245.929656  -1699.333819  -3288.224604   -286.292297
PR20  11876.886777  -9266.807021 -20569.327390   -117.129248
PR21  -8172.473851  -9690.306663 -22130.468091   -123.060087
PR22 -22950.995350  -4460.570432 -10180.961204     76.402194
PR24 -10876.195642  10327.129535  20639.262142    -66.388726
PR25  -8801.281240 -10154.183058 -21672.112985    -99.347336
PR26  -9549.903840  -5065.125705  23121.011700      7.792461
EOF
